{
    "links": {
        "self": "http://www.neowsapp.com/rest/v1/neo/3730579?api_key=iIulBulltgU6a56xZRHN4H3l9WmuAYTsLGpBGhQ2"
    },
    "id": "3730579",
    "neo_reference_id": "3730579",
    "name": "(2015 TV237)",
    "designation": "2015 TV237",
    "nasa_jpl_url": "http://ssd.jpl.nasa.gov/sbdb.cgi?sstr=3730579",
    "absolute_magnitude_h": 24.4,
    "estimated_diameter": {
        "kilometers": {
            "estimated_diameter_min": 0.0350392641,
            "estimated_diameter_max": 0.0783501764
        },
        "meters": {
            "estimated_diameter_min": 35.0392641108,
            "estimated_diameter_max": 78.3501764334
        },
        "miles": {
            "estimated_diameter_min": 0.0217723826,
            "estimated_diameter_max": 0.0486845275
        },
        "feet": {
            "estimated_diameter_min": 114.9582192654,
            "estimated_diameter_max": 257.0543928497
        }
    },
    "is_potentially_hazardous_asteroid": false,
    "close_approach_data": [
        {
            "close_approach_date": "2010-10-04",
            "close_approach_date_full": "2010-Oct-04 18:43",
            "epoch_date_close_approach": 1286217780000,
            "relative_velocity": {
                "kilometers_per_second": "16.4869257109",
                "kilometers_per_hour": "59352.9325591255",
                "miles_per_hour": "36879.6041226411"
            },
            "miss_distance": {
                "astronomical": "0.4161578698",
                "lunar": "161.8854113522",
                "kilometers": "62256330.905817326",
                "miles": "38684290.2105020588"
            },
            "orbiting_body": "Earth"
        },
        {
            "close_approach_date": "2015-10-22",
            "close_approach_date_full": "2015-Oct-22 01:26",
            "epoch_date_close_approach": 1445477160000,
            "relative_velocity": {
                "kilometers_per_second": "9.3354146434",
                "kilometers_per_hour": "33607.4927161516",
                "miles_per_hour": "20882.3890157665"
            },
            "miss_distance": {
                "astronomical": "0.1359235042",
                "lunar": "52.8742431338",
                "kilometers": "20333866.711256054",
                "miles": "12634878.8872553852"
            },
            "orbiting_body": "Earth"
        }
    ],
    "orbital_data": {
        "orbit_id": "7",
        "orbit_determination_date": "2017-04-06 08:31:17",
        "first_observation_date": "2015-10-13",
        "last_observation_date": "2015-11-13",
        "data_arc_in_days": 31,
        "observations_used": 29,
        "orbit_uncertainty": "7",
        "minimum_orbit_intersection": ".127244",
        "jupiter_tisserand_invariant": "3.848",
        "epoch_osculation": "2459000.5",
        "eccentricity": ".408771347134929",
        "semi_major_axis": "1.859289786365526",
        "inclination": "15.93886908330043",
        "ascending_node_longitude": "199.279055629682",
        "orbital_period": "926.0171975303736",
        "perihelion_distance": "1.099265395678675",
        "perihelion_argument": "206.3965876915764",
        "aphelion_distance": "2.619314177052376",
        "perihelion_time": "2459189.020839141453",
        "mean_anomaly": "286.7103221496089",
        "mean_motion": ".3887616784656874",
        "equinox": "J2000",
        "orbit_class": {
            "orbit_class_type": "AMO",
            "orbit_class_description": "Near-Earth asteroid orbits similar to that of 1221 Amor",
            "orbit_class_range": "1.017 AU < q (perihelion) < 1.3 AU"
        }
    },
    "is_sentry_object": false
}